GALAXY 3C (G-3C)        
1 27445U 02030A   26160.23024110 -.00000136  00000+0  00000+0 0  9994
2 27445   3.7096  78.0811 0001748  31.9840 135.5822  1.00271653 46415
INTELSAT 906 (IS-906)   
1 27513U 02041A   26160.29072391  .00000029  00000+0  00000+0 0  9992
2 27513   5.7837  73.0175 0004648 359.0917 354.3483  1.00271320 86942
NIMIQ 2                 
1 27632U 02062A   26160.23252868 -.00000056  00000+0  00000+0 0  9991
2 27632   9.4272  56.9832 0005632  17.8706 157.2730  1.00271865 44108
USA 167                 
1 27691U 03008A   26160.11900797  .00000015  00000+0  00000+0 0  9999
2 27691  10.9447  43.4790 0003872 314.1375 181.0057  1.00273864  6697
USA 169 (MILSTAR-2 4)   
1 27711U 03012A   26159.94409441 -.00000219  00000+0  00000+0 0  9993
2 27711  12.3366  29.9065 0100946   8.8672 350.5502  1.00270335 32863
ASIASAT 4               
1 27718U 03014A   26159.87768295 -.00000206  00000+0  00000+0 0  9995
2 27718   4.6841  75.8490 0002928   4.4207 280.4984  1.00272432 45219
HELLAS-SAT 2            
1 27811U 03020A   26160.09211583 -.00000069  00000+0  00000+0 0  9992
2 27811   7.3336  67.9800 0002627   9.6934 202.9523  1.00271392 42768
THURAYA-2               
1 27825U 03026A   26159.78125000  .00000137  00000+0  00000+0 0  9990
2 27825   8.8257  32.0302 0003152   6.3511 184.0331  1.00273078 84261
OPTUS C1                
1 27831U 03028B   26159.57706481 -.00000136  00000+0  00000+0 0  9994
2 27831   6.8672  69.5133 0005718   7.3338 183.5675  1.00273783 52973
USA 170                 
1 27875U 03040A   26159.92914766  .00000139  00000+0  00000+0 0  9994
2 27875  10.4821  48.0247 0001887  33.6399 174.4630  1.00277144 32915
GALAXY 13 (HORIZONS-1)  
1 27954U 03044A   26160.28879311  .00000149  00000+0  00000+0 0  9994
2 27954   1.3998  83.9552 0002105 350.4794 137.1902  1.00273678 46491
YAMAL 202               
1 28089U 03053A   26159.58995525 -.00000065  00000+0  00000+0 0  9999
2 28089   6.3225  71.0410 0003342 353.2359 208.6794  1.00273032 82613
UFO 11 (USA 174)        
1 28117U 03057A   26160.16816818 -.00000093  00000+0  00000+0 0  9999
2 28117   8.9357  33.8711 0002514  44.6411 315.1349  1.00274033 82363
USA 176 (DSP 22)        
1 28158U 04004A   26160.04649647 -.00000284  00000+0  00000+0 0  9990
2 28158  12.0508  26.1284 0001128 297.6121 259.2573  1.00407916 32854
ABS-4 (MOBISAT-1)       
1 28184U 04007A   26160.05218174  .00000055  00000+0  00000+0 0  9995
2 28184   6.0220  72.1057 0005162   3.3931 261.6678  1.00271507 52253
INTELSAT 10-02          
1 28358U 04022A   26160.05649573  .00000005  00000+0  00000+0 0  9991
2 28358   0.0151 336.1514 0000525 195.6343 104.9809  1.00269264 80471
ANIK F2                 
1 28378U 04027A   26160.24853770 -.00000033  00000+0  00000+0 0  9997
2 28378   3.2654  79.5527 0004272   3.4405 152.9811  1.00271773 41185
AMC-15                  
1 28446U 04041A   26160.23329485 -.00000072  00000+0  00000+0 0  9992
2 28446   0.0296 304.4263 0002290 138.6511 153.4778  1.00271999 79226
NSS-10                  
1 28526U 05003A   26160.17169426 -.00000236  00000+0  00000+0 0  9992
2 28526   6.4285  70.5501 0002925   8.3699 202.9949  1.00271221 53077
INMARSAT 4-F1           
1 28628U 05009A   26159.79327278  .00000047  00000+0  00000+0 0  9997
2 28628   5.1558  42.7387 0002707  38.2720 279.8694  1.00271982 77583
DIRECTV 8               
1 28659U 05019A   26160.32003412  .00000018  00000+0  00000+0 0  9992
2 28659   0.0175  13.0185 0002926  68.6316 172.2124  1.00271624 76995
GALAXY 28 (G-28)        
1 28702U 05022A   26160.26520274 -.00000184  00000+0  00000+0 0  9993
2 28702   3.2792  79.0283 0002845 354.8508 252.1318  1.00272300 51895
THAICOM 4               
1 28786U 05028A   26160.29422163 -.00000345  00000+0  00000+0 0  9991
2 28786   0.2240  86.0195 0001850 345.7023  51.3792  1.00271846 52179
ANIK F1R                
1 28868U 05036A   26160.24931770 -.00000059  00000+0  00000+0 0  9997
2 28868   4.2914  76.6775 0004256   5.6195 157.8143  1.00272485 46373
SYRACUSE 3A             
1 28885U 05041B   26159.99456042  .00000145  00000+0  00000+0 0  9991
2 28885   4.6228  75.9376 0003092 340.3728 245.7398  1.00271388 75665
INMARSAT 4-F2           
1 28899U 05044A   26160.01362718 -.00000245  00000+0  00000+0 0  9992
2 28899   5.0831  43.7030 0003031  33.6300 328.4612  1.00273314 75441
METEOSAT-9 (MSG-2)      
1 28912U 05049B   26159.78055565  .00000137  00000+0  00000+0 0  9993
2 28912   9.3415  54.2486 0001700 350.9221 178.6781  1.00268863  6913
EUTELSAT 174A           
1 28924U 05052A   26159.59203527  .00000024  00000+0  00000+0 0  9997
2 28924   4.1968  76.6319 0006359   1.4418 206.0255  1.00269812 52240
ECHOSTAR 10             
1 28935U 06003A   26160.23252897 -.00000039  00000+0  00000+0 0  9990
2 28935   0.0180   2.9197 0001976  42.7940 185.4340  1.00271319 74386
SPAINSAT                
1 28945U 06007A   26159.37075316 -.00000201  00000+0  00000+0 0  9998
2 28945   0.5393  86.6925 0004885 349.5440 283.8269  1.00272401 74130
JCSAT-5A                
1 29045U 06010A   26160.29673498 -.00000311  00000+0  00000+0 0  9994
2 29045   1.0880  84.3090 0002060  13.0504  39.1765  1.00269427 73691
ASTRA 1KR               
1 29055U 06012A   26160.27430279  .00000136  00000+0  00000+0 0  9997
2 29055   0.4523  83.2046 0003463 353.8792 298.3195  1.00272703 45618
