OBJECT_NAME,OBJECT_ID,EPOCH,MEAN_MOTION,ECCENTRICITY,INCLINATION,RA_OF_ASC_NODE,ARG_OF_PERICENTER,MEAN_ANOMALY,EPHEMERIS_TYPE,CLASSIFICATION_TYPE,NORAD_CAT_ID,ELEMENT_SET_NO,REV_AT_EPOCH,BSTAR,MEAN_MOTION_DOT,MEAN_MOTION_DDOT
GALAXY 3C (G-3C),2002-030A,2026-06-09T05:31:32.831040,1.00271653,.0001748,3.7096,78.0811,31.9840,135.5822,0,U,27445,999,4641,0,-.136E-5,0
INTELSAT 906 (IS-906),2002-041A,2026-06-09T06:58:38.545824,1.00271320,.00046483,5.7837,73.0175,359.0917,354.3483,0,U,27513,999,8694,0,.29E-6,0
NIMIQ 2,2002-062A,2026-06-09T05:34:50.477952,1.00271865,.00056321,9.4272,56.9832,17.8706,157.2730,0,U,27632,999,4410,0,-.56E-6,0
USA 167,2003-008A,2026-06-09T02:51:22.288608,1.00273864,.0003872,10.9447,43.4790,314.1375,181.0057,0,U,27691,999,669,0,.15E-6,0
USA 169 (MILSTAR-2 4),2003-012A,2026-06-08T22:39:29.757024,1.00270335,.01009461,12.3366,29.9065,8.8672,350.5502,0,U,27711,999,3286,0,-.219E-5,0
ASIASAT 4,2003-014A,2026-06-08T21:03:51.806880,1.00272432,.00029289,4.6841,75.8490,4.4207,280.4984,0,U,27718,999,4521,0,-.206E-5,0
HELLAS-SAT 2,2003-020A,2026-06-09T02:12:38.807712,1.00271392,.00026278,7.3336,67.9800,9.6934,202.9523,0,U,27811,999,4276,0,-.69E-6,0
THURAYA-2,2003-026A,2026-06-08T18:45:00.000000,1.00273078,.00031526,8.8257,32.0302,6.3511,184.0331,0,U,27825,999,8426,0,.137E-5,0
OPTUS C1,2003-028B,2026-06-08T13:50:58.399584,1.00273783,.00057182,6.8672,69.5133,7.3338,183.5675,0,U,27831,999,5297,0,-.136E-5,0
USA 170,2003-040A,2026-06-08T22:17:58.357824,1.00277144,.0001887,10.4821,48.0247,33.6399,174.4630,0,U,27875,999,3291,0,.139E-5,0
GALAXY 13 (HORIZONS-1),2003-044A,2026-06-09T06:55:51.724704,1.00273678,.00021059,1.3998,83.9552,350.4794,137.1902,0,U,27954,999,4649,0,.149E-5,0
YAMAL 202,2003-053A,2026-06-08T14:09:32.133600,1.00273032,.00033426,6.3225,71.0410,353.2359,208.6794,0,U,28089,999,8261,0,-.65E-6,0
UFO 11 (USA 174),2003-057A,2026-06-09T04:02:09.730752,1.00274033,.00025148,8.9357,33.8711,44.6411,315.1349,0,U,28117,999,8236,0,-.93E-6,0
USA 176 (DSP 22),2004-004A,2026-06-09T01:06:57.295008,1.00407916,.00011283,12.0508,26.1284,297.6121,259.2573,0,U,28158,999,3285,0,-.284E-5,0
ABS-4 (MOBISAT-1),2004-007A,2026-06-09T01:15:08.502336,1.00271507,.00051629,6.0220,72.1057,3.3931,261.6678,0,U,28184,999,5225,0,.55E-6,0
INTELSAT 10-02,2004-022A,2026-06-09T01:21:21.231072,1.00269264,.00005251,0.0151,336.1514,195.6343,104.9809,0,U,28358,999,8047,0,.5E-7,0
ANIK F2,2004-027A,2026-06-09T05:57:53.657280,1.00271773,.00042728,3.2654,79.5527,3.4405,152.9811,0,U,28378,999,4118,0,-.33E-6,0
AMC-15,2004-041A,2026-06-09T05:35:56.675040,1.00271999,.00022903,0.0296,304.4263,138.6511,153.4778,0,U,28446,999,7922,0,-.72E-6,0
NSS-10,2005-003A,2026-06-09T04:07:14.384064,1.00271221,.00029252,6.4285,70.5501,8.3699,202.9949,0,U,28526,999,5307,0,-.236E-5,0
INMARSAT 4-F1,2005-009A,2026-06-08T19:02:18.768192,1.00271982,.00027073,5.1558,42.7387,38.2720,279.8694,0,U,28628,999,7758,0,.47E-6,0
DIRECTV 8,2005-019A,2026-06-09T07:40:50.947968,1.00271624,.00029268,0.0175,13.0185,68.6316,172.2124,0,U,28659,999,7699,0,.18E-6,0
GALAXY 28 (G-28),2005-022A,2026-06-09T06:21:53.516736,1.00272300,.00028453,3.2792,79.0283,354.8508,252.1318,0,U,28702,999,5189,0,-.184E-5,0
THAICOM 4,2005-028A,2026-06-09T07:03:40.748832,1.00271846,.00018509,0.2240,86.0195,345.7023,51.3792,0,U,28786,999,5217,0,-.345E-5,0
ANIK F1R,2005-036A,2026-06-09T05:59:01.049280,1.00272485,.0004256,4.2914,76.6775,5.6195,157.8143,0,U,28868,999,4637,0,-.59E-6,0
SYRACUSE 3A,2005-041B,2026-06-08T23:52:10.020288,1.00271388,.00030924,4.6228,75.9376,340.3728,245.7398,0,U,28885,999,7566,0,.145E-5,0
INMARSAT 4-F2,2005-044A,2026-06-09T00:19:37.388352,1.00273314,.00030314,5.0831,43.7030,33.6300,328.4612,0,U,28899,999,7544,0,-.245E-5,0
METEOSAT-9 (MSG-2),2005-049B,2026-06-08T18:44:00.008160,1.00268863,.00017001,9.3415,54.2486,350.9221,178.6781,0,U,28912,999,691,0,.137E-5,0
EUTELSAT 174A,2005-052A,2026-06-08T14:12:31.847328,1.00269812,.00063593,4.1968,76.6319,1.4418,206.0255,0,U,28924,999,5224,0,.24E-6,0
ECHOSTAR 10,2006-003A,2026-06-09T05:34:50.503008,1.00271319,.00019765,0.0180,2.9197,42.7940,185.4340,0,U,28935,999,7438,0,-.39E-6,0
SPAINSAT,2006-007A,2026-06-08T08:53:53.073024,1.00272401,.00048859,0.5393,86.6925,349.5440,283.8269,0,U,28945,999,7413,0,-.201E-5,0
JCSAT-5A,2006-010A,2026-06-09T07:07:17.902272,1.00269427,.000206,1.0880,84.3090,13.0504,39.1765,0,U,29045,999,7369,0,-.311E-5,0
ASTRA 1KR,2006-012A,2026-06-09T06:34:59.761056,1.00272703,.00034635,0.4523,83.2046,353.8792,298.3195,0,U,29055,999,4561,0,.136E-5,0
